NORAD_CAT_ID,OBJECT_NAME,OBJECT_TYPE,EPOCH,MEAN_MOTION,ECCENTRICITY,INCLINATION,RA_OF_ASC_NODE,ARG_OF_PERICENTER,MEAN_ANOMALY,BSTAR,MEAN_MOTION_DOT,MEAN_MOTION_DDOT,TLE_LINE0,TLE_LINE1,TLE_LINE2,SEMIMAJOR_AXIS,PERIOD,APOGEE,PERIGEE,DECAYED
52583.0,STARLINK-3895,PAYLOAD,2022-10-22 21:11:26,15.08837387,0.0002005,53.2188,257.8901,50.9991,309.118,-6.056799999999999e-06,-3.85e-06,0.0,0 STARLINK-3895,1 52583U 22051AZ  22295.88294948 -.00000385  00000-0 -60568-5 0  9993,2 52583  53.2188 257.8901 0002005  50.9991 309.1180 15.08837387 25328,6917.888000000001,95.438,541.14,538.366,0.0
52583.0,STARLINK-3895,PAYLOAD,2022-10-23 06:43:45,15.08842207,0.0002075,53.2192,256.1061,51.9137,308.2042,4.3224e-05,4e-06,0.0,0 STARLINK-3895,1 52583U 22051AZ  22296.28038584  .00000400  00000-0  43224-4 0  9995,2 52583  53.2192 256.1061 0002075  51.9137 308.2042 15.08842207 25382,6917.874,95.437,541.174,538.303,0.0
52583.0,STARLINK-3895,PAYLOAD,2022-10-23 14:40:40,15.08847057,0.0001884,53.2188,254.6183,56.0567,304.0604,0.00017972,2.574e-05,0.0,0 STARLINK-3895,1 52583U 22051AZ  22296.61157867  .00002574  00000-0  17972-3 0  9992,2 52583  53.2188 254.6183 0001884  56.0567 304.0604 15.08847057 25437,6917.859,95.437,541.0269999999998,538.42,0.0
52583.0,STARLINK-3895,PAYLOAD,2022-10-23 21:02:12,15.08856229,0.0001834,53.219,253.4284,62.4508,297.6671,5.5394e-05,5.94e-06,0.0,0 STARLINK-3895,1 52583U 22051AZ  22296.87653588  .00000594  00000-0  55394-4 0  9992,2 52583  53.2190 253.4284 0001834  62.4508 297.6671 15.08856229 25544,6917.831,95.437,540.965,538.427,0.0
52583.0,STARLINK-3895,PAYLOAD,2022-10-24 06:34:31,15.08846248,0.0001714,53.2186,251.6454,59.602,300.5141,1.8489e-05,6e-08,0.0,0 STARLINK-3895,1 52583U 22051AZ  22297.27397896  .00000006  00000-0  18489-4 0  9996,2 52583  53.2186 251.6454 0001714  59.6020 300.5141 15.08846248 25537,6917.861,95.437,540.9119999999998,538.5409999999998,0.0
52583.0,STARLINK-3895,PAYLOAD,2022-10-24 20:53:01,15.08829053,0.0001898,53.2177,248.9669,64.4944,295.6244,-2.2304e-05,-6.43e-06,0.0,0 STARLINK-3895,1 52583U 22051AZ  22297.87015182 -.00000643  00000-0 -22304-4 0  9997,2 52583  53.2177 248.9669 0001898  64.4944 295.6244 15.08829053 25696,6917.9140000000025,95.438,541.092,538.466,0.0
52583.0,STARLINK-3895,PAYLOAD,2022-10-25 06:25:19,15.08834488,0.0001715,53.2187,247.1835,60.8243,299.2921,-6.3632e-06,-3.89e-06,0.0,0 STARLINK-3895,1 52583U 22051AZ  22298.26759063 -.00000389  00000-0 -63632-5 0  9991,2 52583  53.2187 247.1835 0001715  60.8243 299.2921 15.08834488 25682,6917.897,95.438,540.9490000000002,538.576,0.0
52583.0,STARLINK-3895,PAYLOAD,2022-10-25 14:22:15,15.08840477,0.0001733,53.2189,245.6974,59.7946,300.3217,6.0653e-05,6.77e-06,0.0,0 STARLINK-3895,1 52583U 22051AZ  22298.59878864  .00000677  00000-0  60653-4 0  9995,2 52583  53.2189 245.6974 0001733  59.7946 300.3217 15.08840477 25809,6917.879,95.438,540.943,538.545,0.0
52583.0,STARLINK-3895,PAYLOAD,2022-10-25 20:43:48,15.08835093,0.0001764999999999,53.2203,244.5081,63.6015,296.5158,2.4661e-05,1.04e-06,0.0,0 STARLINK-3895,1 52583U 22051AZ  22298.86375292  .00000104  00000-0  24661-4 0  9996,2 52583  53.2203 244.5081 0001765  63.6015 296.5158 15.08835093 25773,6917.895,95.438,540.981,538.539,0.0
52583.0,STARLINK-3895,PAYLOAD,2022-10-26 04:40:44,15.08833118,0.0001740999999999,53.2191,243.0223,58.3375,301.7786,3.612e-05,2.87e-06,0.0,0 STARLINK-3895,1 52583U 22051AZ  22299.19495580  .00000287  00000-0  36120-4 0  9991,2 52583  53.2191 243.0223 0001741  58.3375 301.7786 15.08833118 25890,6917.901,95.438,540.971,538.562,0.0
52583.0,STARLINK-3895,PAYLOAD,2022-10-26 06:16:07,15.08834437,0.0001738,53.2189,242.7246,58.4626,301.6535,6.0524e-05,6.75e-06,0.0,0 STARLINK-3895,1 52583U 22051AZ  22299.26119556  .00000675  00000-0  60524-4 0  9991,2 52583  53.2189 242.7246 0001738  58.4626 301.6535 15.08834437 25834,6917.897,95.438,540.965,538.56,0.0
52583.0,STARLINK-3895,PAYLOAD,2022-10-26 18:59:12,15.08844275,0.0001704,53.2188,240.3464,56.4897,303.6258,0.00036975,5.602e-05,0.0,0 STARLINK-3895,1 52583U 22051AZ  22299.79111314  .00005602  00000-0  36975-3 0  9990,2 52583  53.2188 240.3464 0001704  56.4897 303.6258 15.08844275 25914,6917.8669999999975,95.437,540.911,538.554,0.0
52583.0,STARLINK-3895,PAYLOAD,2022-10-27 12:28:26,15.08849386,0.0001723,53.2186,237.0759,54.9782,305.1372,0.00028944,4.323e-05,0.0,0 STARLINK-3895,1 52583U 22051AZ  22300.51974928  .00004323  00000-0  28944-3 0  9997,2 52583  53.2186 237.0759 0001723  54.9782 305.1372 15.08849386 26024,6917.852,95.437,540.909,538.525,0.0
52583.0,STARLINK-3895,PAYLOAD,2022-10-27 23:36:08,15.08850465,0.0001726,53.2184,234.9943,54.4006,305.7146,0.00022129,3.237e-05,0.0,0 STARLINK-3895,1 52583U 22051AZ  22300.98342627  .00003237  00000-0  22129-3 0  9995,2 52583  53.2184 234.9943 0001726  54.4006 305.7146 15.08850465 26160,6917.848000000001,95.437,540.9069999999998,538.519,0.0
52583.0,STARLINK-3895,PAYLOAD,2022-10-28 12:19:12,15.08855097,0.0001738,53.2183,232.6157,54.5454,305.57,0.00018506,2.660000000000001e-05,0.0,0 STARLINK-3895,1 52583U 22051AZ  22301.51334054  .00002660  00000-0  18506-3 0  9993,2 52583  53.2183 232.6157 0001738  54.5454 305.5700 15.08855097 26173,6917.834,95.437,540.9019999999998,538.497,0.0
52583.0,STARLINK-3895,PAYLOAD,2022-10-28 20:16:08,15.08855215,0.0001736,53.2183,231.1291,55.8592,304.2565,0.00010222,1.34e-05,0.0,0 STARLINK-3895,1 52583U 22051AZ  22301.84453760  .00001340  00000-0  10222-3 0  9996,2 52583  53.2183 231.1291 0001736  55.8592 304.2565 15.08855215 26224,6917.834,95.437,540.9,538.498,0.0
52583.0,STARLINK-3895,PAYLOAD,2022-10-29 04:13:03,15.08849012,0.000166,53.2186,229.6423,59.8043,300.3113,3.0844e-05,2.03e-06,0.0,0 STARLINK-3895,1 52583U 22051AZ  22302.17573879  .00000203  00000-0  30844-4 0  9997,2 52583  53.2186 229.6423 0001660  59.8043 300.3113 15.08849012 26276,6917.853,95.437,540.866,538.569,0.0
52583.0,STARLINK-3895,PAYLOAD,2022-10-29 20:06:54,15.08853836,0.0001696999999999,53.2185,226.6686,50.0377,310.0764,0.00014238,1.979e-05,0.0,0 STARLINK-3895,1 52583U 22051AZ  22302.83813240  .00001979  00000-0  14238-3 0  9998,2 52583  53.2185 226.6686 0001697  50.0377 310.0764 15.08853836 26376,6917.8380000000025,95.437,540.877,538.529,0.0
52583.0,STARLINK-3895,PAYLOAD,2022-10-30 02:28:27,15.08849554,0.0001696,53.2184,225.4792,55.8322,304.2831,1.4619e-05,-5.5e-07,0.0,0 STARLINK-3895,1 52583U 22051AZ  22303.10309215 -.00000055  00000-0  14619-4 0  9990,2 52583  53.2184 225.4792 0001696  55.8322 304.2831 15.08849554 26419,6917.851,95.437,540.889,538.543,0.0
52583.0,STARLINK-3895,PAYLOAD,2022-10-30 18:22:18,15.08837052,0.0001858,53.2184,222.506,56.9408,303.1762,-2.1589e-05,-6.32e-06,0.0,0 STARLINK-3895,1 52583U 22051AZ  22303.76549657 -.00000632  00000-0 -21589-4 0  9994,2 52583  53.2184 222.5060 0001858  56.9408 303.1762 15.08837052 26514,6917.889,95.438,541.04,538.469,0.0
52583.0,STARLINK-3895,PAYLOAD,2022-10-31 03:54:38,15.08821952,0.0001505,53.2188,220.7198,56.9048,303.2089,-0.00019629,-3.409e-05,0.0,0 STARLINK-3895,1 52583U 22051AZ  22304.16294594 -.00003409  00000-0 -19629-3 0  9992,2 52583  53.2188 220.7198 0001505  56.9048 303.2089 15.08821952 26570,6917.936,95.439,540.842,538.759,0.0
52583.0,STARLINK-3895,PAYLOAD,2022-10-31 19:48:29,15.0884339,0.0001398,53.2202,217.7484,66.8109,293.3031,-4.7775e-05,-1.048e-05,0.0,0 STARLINK-3895,1 52583U 22051AZ  22304.82533902 -.00001048  00000-0 -47775-4 0  9995,2 52583  53.2202 217.7484 0001398  66.8109 293.3031 15.08843390 26744,6917.87,95.437,540.702,538.768,0.0
52583.0,STARLINK-3895,PAYLOAD,2022-11-01 03:45:24,15.08843411,0.0001553,53.2192,216.2609,61.1819,298.9329,-3.6206e-05,-8.64e-06,0.0,0 STARLINK-3895,1 52583U 22051AZ  22305.15653898 -.00000864  00000-0 -36206-4 0  9991,2 52583  53.2192 216.2609 0001553  61.1819 298.9329 15.08843411 26727,6917.87,95.437,540.809,538.661,0.0
52583.0,STARLINK-3895,PAYLOAD,2022-11-01 18:03:53,15.08833991,0.0001402,53.2189,213.5846,56.3127,303.7998,0.00020733,3.013e-05,0.0,0 STARLINK-3895,1 52583U 22051AZ  22305.75270031  .00003013  00000-0  20733-3 0  9995,2 52583  53.2189 213.5846 0001402  56.3127 303.7998 15.08833991 26816,6917.899,95.438,540.734,538.794,0.0
52583.0,STARLINK-3895,PAYLOAD,2022-11-02 00:25:26,15.08840293,0.0001641999999999,53.2179,212.3956,53.7343,306.38,0.0003164,4.751e-05,0.0,0 STARLINK-3895,1 52583U 22051AZ  22306.01766354  .00004751  00000-0  31640-3 0  9992,2 52583  53.2179 212.3956 0001642  53.7343 306.3800 15.08840293 26927,6917.879,95.438,540.88,538.609,0.0
52583.0,STARLINK-3895,PAYLOAD,2022-11-02 16:19:17,15.08844464,0.0001136,53.218,209.4224,54.4408,305.6690000000001,0.00010266,1.347e-05,0.0,0 STARLINK-3895,1 52583U 22051AZ  22306.68005954  .00001347  00000-0  10266-3 0  9996,2 52583  53.2180 209.4224 0001136  54.4408 305.6690 15.08844464 26958,6917.8669999999975,95.437,540.518,538.946,0.0
52583.0,STARLINK-3895,PAYLOAD,2022-11-03 01:51:37,15.08820175,0.0001467,53.2178,207.638,64.8424,295.272,-0.0001005,-1.886e-05,0.0,0 STARLINK-3895,1 52583U 22051AZ  22307.07751513 -.00001886  00000-0 -10050-3 0  9990,2 52583  53.2178 207.6380 0001467  64.8424 295.2720 15.08820175 27084,6917.941,95.439,540.821,538.7909999999998,0.0
52583.0,STARLINK-3895,PAYLOAD,2022-11-03 17:45:28,15.08838294,0.0001718,53.2184,204.6674,51.9242,308.1905,9.7633e-05,1.266e-05,0.0,0 STARLINK-3895,1 52583U 22051AZ  22307.73991027  .00001266  00000-0  97633-4 0  9992,2 52583  53.2184 204.6674 0001718  51.9242 308.1905 15.08838294 27189,6917.886,95.438,540.939,538.562,0.0
52583.0,STARLINK-3895,PAYLOAD,2022-11-03 20:56:13,15.08851812,0.0001729,53.2192,204.0722,77.5499,282.5686,0.00028358,4.229e-05,0.0,0 STARLINK-3895,1 52583U 22051AZ  22307.87238397  .00004229  00000-0  28358-3 0  9990,2 52583  53.2192 204.0722 0001729  77.5499 282.5686 15.08851812 27133,6917.844,95.437,540.905,538.513,0.0
